[{"OBJECT_NAME":"STARLINK-2618","OBJECT_ID":"2021-044BH","EPOCH":"2026-03-09T06:58:05.889216","MEAN_MOTION":15.30196275,"ECCENTRICITY":0.00013813,"INCLINATION":53.1605,"RA_OF_ASC_NODE":77.1185,"ARG_OF_PERICENTER":92.9326,"MEAN_ANOMALY":267.1833,"EPHEMERIS_TYPE":0,"CLASSIFICATION_TYPE":"U","NORAD_CAT_ID":48693,"ELEMENT_SET_NO":999,"REV_AT_EPOCH":26430,"BSTAR":8.721502e-6,"MEAN_MOTION_DOT":-1.01e-6,"MEAN_MOTION_DDOT":0},{"OBJECT_NAME":"FLOCK 4BE-27","OBJECT_ID":"2024-149AX","EPOCH":"2026-03-09T18:04:53.053248","MEAN_MOTION":15.32593322,"ECCENTRICITY":0.00027324,"INCLINATION":97.3862,"RA_OF_ASC_NODE":150.6783,"ARG_OF_PERICENTER":305.898,"MEAN_ANOMALY":54.2008,"EPHEMERIS_TYPE":0,"CLASSIFICATION_TYPE":"U","NORAD_CAT_ID":60513,"ELEMENT_SET_NO":999,"REV_AT_EPOCH":8690,"BSTAR":0.00036576028,"MEAN_MOTION_DOT":0.00011439,"MEAN_MOTION_DDOT":0}]
