STARLINK-2618           
1 48693U 21044BH  26068.29034594 -.00000101  00000+0  87215-5 0  9999
2 48693  53.1605  77.1185 0001381  92.9326 267.1833 15.30196275264309
FLOCK 4BE-27            
1 60513U 24149AX  26068.75339182  .00011439  00000+0  36576-3 0  9992
2 60513  97.3862 150.6783 0002732 305.8980  54.2008 15.32593322 86906
